*******************************************************************************
JPL/HORIZONS                 731 Sorga (A912 GH)           2023-Sep-04 11:07:59
Rec #:     731 (+COV) Soln.date: 2023-Aug-24_15:05:04   # obs: 5181 (1916-2023)
 
IAU76/J2000 helio. ecliptic osc. elements (au, days, deg., period=Julian yrs):
 
  EPOCH=  2456960.5 ! 2014-Oct-30.00 (TDB)         Residual RMS= .26708
   EC= .1384752983005218   QR= 2.577699633251947   TP= 2456056.7184725413
   OM= 46.24013782490671   W=  288.2641015996354   IN= 10.67894523480259
   A= 2.992020574879714    MA= 172.1157726778633   ADIST= 3.406341516507481
   PER= 5.17553            N= .190439578           ANGMOM= .029468593
   DAN= 2.81259            DDN= 3.06778            L= 334.8042422
   B= -10.1351227          MOID= 1.59274995        TP= 2012-May-09.2184725413
 
Asteroid physical parameters (km, seconds, rotational period in hours):
   GM= n.a.                RAD= 17.2985            ROTPER= 8.184
   H= 9.79                 G= .150                 B-V= .691
                           ALBEDO= .209            STYP= Xe

ASTEROID comments: 
1: soln ref.= JPL#69, OCC=0
2: source=ORB
*******************************************************************************


*******************************************************************************
Ephemeris / API_USER Mon Sep  4 11:08:00 2023 Pasadena, USA      / Horizons
*******************************************************************************
Target body name: 731 Sorga (A912 GH)             {source: JPL#69}
Center body name: Solar System Barycenter (0)     {source: DE441}
Center-site name: BODY CENTER
*******************************************************************************
Start time      : A.D. 2023-Aug-12 00:00:00.0000 TDB
Stop  time      : A.D. 2023-Aug-13 00:00:00.0000 TDB
Step-size       : 2880 minutes
*******************************************************************************
Center geodetic : 0.0, 0.0, 0.0                   {E-lon(deg),Lat(deg),Alt(km)}
Center cylindric: 0.0, 0.0, 0.0                   {E-lon(deg),Dxy(km),Dz(km)}
Center radii    : (undefined)
Small perturbers: Yes                             {source: SB441-N16}
Output units    : KM-S
Calendar mode   : Mixed Julian/Gregorian
Output type     : GEOMETRIC cartesian states
Output format   : 2 (position and velocity)
Reference frame : Ecliptic of J2000.0
*******************************************************************************
Initial IAU76/J2000 heliocentric ecliptic osculating elements (au, days, deg.):
  EPOCH=  2456960.5 ! 2014-Oct-30.00 (TDB)         Residual RMS= .26708        
   EC= .1384752983005218   QR= 2.577699633251947   TP= 2456056.7184725413      
   OM= 46.24013782490671   W=  288.2641015996354   IN= 10.67894523480259       
  Equivalent ICRF heliocentric cartesian coordinates (au, au/d):
   X=-2.859467089686162E+00  Y= 1.350877577745939E+00  Z= 1.257435527257023E+00
  VX=-4.672892047393546E-03 VY=-6.558499938485541E-03 VZ=-3.185287240479154E-03
Asteroid physical parameters (km, seconds, rotational period in hours):        
   GM= n.a.                RAD= 17.2985            ROTPER= 8.184               
   H= 9.79                 G= .150                 B-V= .691                   
                           ALBEDO= .209            STYP= Xe                    
*******************************************************************************
JDTDB
   X     Y     Z
   VX    VY    VZ
*******************************************************************************
$$SOE
2460168.500000000 = A.D. 2023-Aug-12 00:00:00.0000 TDB 
 X = 2.479245938462169E+08 Y = 3.467379011393210E+08 Z = 1.158274633650696E+07
 VX=-1.285724515281830E+01 VY= 1.213397691225167E+01 VZ= 3.342321655774552E+00
$$EOE
*******************************************************************************
 
TIME

  Barycentric Dynamical Time ("TDB" or T_eph) output was requested. This
continuous coordinate time is equivalent to the relativistic proper time
of a clock at rest in a reference frame co-moving with the solar system
barycenter but outside the system's gravity well. It is the independent
variable in the solar system relativistic equations of motion.

  TDB runs at a uniform rate of one SI second per second and is independent
of irregularities in Earth's rotation.
 
CALENDAR SYSTEM

  Mixed calendar mode was active such that calendar dates after AD 1582-Oct-15
(if any) are in the modern Gregorian system. Dates prior to 1582-Oct-5 (if any)
are in the Julian calendar system, which is automatically extended for dates
prior to its adoption on 45-Jan-1 BC.  The Julian calendar is useful for
matching historical dates. The Gregorian calendar more accurately corresponds
to the Earth's orbital motion and seasons. A "Gregorian-only" calendar mode is
available if such physical events are the primary interest.

REFERENCE FRAME AND COORDINATES

  Ecliptic at the standard reference epoch

    Reference epoch: J2000.0
    X-Y plane: adopted Earth orbital plane at the reference epoch
               Note: IAU76 obliquity of 84381.448 arcseconds wrt ICRF X-Y plane
    X-axis   : ICRF
    Z-axis   : perpendicular to the X-Y plane in the directional (+ or -) sense
               of Earth's north pole at the reference epoch.

  Symbol meaning:

    JDTDB    Julian Day Number, Barycentric Dynamical Time
      X      X-component of position vector (km)
      Y      Y-component of position vector (km)
      Z      Z-component of position vector (km)
      VX     X-component of velocity vector (km/sec)                           
      VY     Y-component of velocity vector (km/sec)                           
      VZ     Z-component of velocity vector (km/sec)                           

ABERRATIONS AND CORRECTIONS

 Geometric state vectors have NO corrections or aberrations applied.

Computations by ...

    Solar System Dynamics Group, Horizons On-Line Ephemeris System
    4800 Oak Grove Drive, Jet Propulsion Laboratory
    Pasadena, CA  91109   USA

    General site: https://ssd.jpl.nasa.gov/
    Mailing list: https://ssd.jpl.nasa.gov/email_list.html
    System news : https://ssd.jpl.nasa.gov/horizons/news.html
    User Guide  : https://ssd.jpl.nasa.gov/horizons/manual.html
    Connect     : browser        https://ssd.jpl.nasa.gov/horizons/app.html#/x
                  API            https://ssd-api.jpl.nasa.gov/doc/horizons.html
                  command-line   telnet ssd.jpl.nasa.gov 6775
                  e-mail/batch   https://ssd.jpl.nasa.gov/ftp/ssd/hrzn_batch.txt
                  scripts        https://ssd.jpl.nasa.gov/ftp/ssd/SCRIPTS
    Author      : Jon.D.Giorgini@jpl.nasa.gov
*******************************************************************************
